NORAD_CAT_ID,OBJECT_NAME,OBJECT_TYPE,EPOCH,MEAN_MOTION,ECCENTRICITY,INCLINATION,RA_OF_ASC_NODE,ARG_OF_PERICENTER,MEAN_ANOMALY,BSTAR,MEAN_MOTION_DOT,MEAN_MOTION_DDOT,TLE_LINE0,TLE_LINE1,TLE_LINE2,SEMIMAJOR_AXIS,PERIOD,APOGEE,PERIGEE,DECAYED
49442.0,STARLINK-3098,PAYLOAD,2023-10-26 06:11:12,15.08844932,0.000145,53.2159,134.1962,89.302,270.8138,-2.799e-05,-7.33e-06,0.0,0 STARLINK-3098,1 49442U 21104AL  23299.25778913 -.00000733  00000-0 -27990-4 0  9994,2 49442  53.2159 134.1962 0001450  89.3020 270.8138 15.08844932108268,6917.865,95.437,540.733,538.727,0.0
49442.0,STARLINK-3098,PAYLOAD,2023-10-26 20:29:41,15.08840431,0.0001379,53.2157,131.5196,83.9984,276.1165,0.00024751,3.653e-05,0.0,0 STARLINK-3098,1 49442U 21104AL  23299.85395238  .00003653  00000-0  24751-3 0  9998,2 49442  53.2157 131.5196 0001379  83.9984 276.1165 15.08840431108354,6917.879,95.438,540.698,538.79,0.0
49442.0,STARLINK-3098,PAYLOAD,2023-10-26 22:05:04,15.08844847,0.000148,53.2155,131.2223,87.8886,272.2275,0.00014777,2.065e-05,0.0,0 STARLINK-3098,1 49442U 21104AL  23299.92018988  .00002065  00000-0  14777-3 0  9993,2 49442  53.2155 131.2223 0001480  87.8886 272.2275 15.08844847109442,6917.866,95.437,540.754,538.707,0.0
49442.0,STARLINK-3098,PAYLOAD,2023-10-27 12:23:32,15.08840631,0.0001471,53.215,128.5461,83.7659,276.35,8.2841e-05,1.031e-05,0.0,0 STARLINK-3098,1 49442U 21104AL  23300.51635250  .00001031  00000-0  82841-4 0  9998,2 49442  53.2150 128.5461 0001471  83.7659 276.3500 15.08840631108456,6917.878,95.438,540.761,538.726,0.0
49442.0,STARLINK-3098,PAYLOAD,2023-10-27 18:45:05,15.08842628,0.0001415,53.2145,127.3567,84.0239,276.0914,0.00011652,1.567e-05,0.0,0 STARLINK-3098,1 49442U 21104AL  23300.78131126  .00001567  00000-0  11652-3 0  9995,2 49442  53.2145 127.3567 0001415  84.0239 276.0914 15.08842628109578,6917.872,95.437,540.716,538.758,0.0
49442.0,STARLINK-3098,PAYLOAD,2023-10-27 21:55:51,15.08846766,0.0001403,53.2143,126.7619,86.4055,273.7097,1.134e-05,-1.07e-06,0.0,0 STARLINK-3098,1 49442U 21104AL  23300.91378893 -.00000107  00000-0  11340-4 0  9999,2 49442  53.2143 126.7619 0001403  86.4055 273.7097 15.08846766108512,6917.86,95.437,540.695,538.754,0.0
49442.0,STARLINK-3098,PAYLOAD,2023-10-28 12:14:19,15.08844246,0.0001628,53.2146,124.0871,80.4485,279.6691,-7.8124e-05,-1.531e-05,0.0,0 STARLINK-3098,1 49442U 21104AL  23301.50995142 -.00001531  00000-0 -78124-4 0  9993,2 49442  53.2146 124.0871 0001628  80.4485 279.6691 15.08844246108602,6917.867,95.437,540.859,538.606,0.0
49442.0,STARLINK-3098,PAYLOAD,2023-10-28 18:35:52,15.08843808,0.0001492,53.215,122.8954,90.4407,269.6756,8.1445e-05,1.009e-05,0.0,0 STARLINK-3098,1 49442U 21104AL  23301.77491120  .00001009  00000-0  81445-4 0  9997,2 49442  53.2150 122.8954 0001492  90.4407 269.6756 15.08843808108647,6917.869,95.437,540.766,538.702,0.0
49442.0,STARLINK-3098,PAYLOAD,2023-10-29 05:43:34,15.08843858,0.0001457,53.2155,120.8137,90.8472,269.2687,8.5337e-05,1.071e-05,0.0,0 STARLINK-3098,1 49442U 21104AL  23302.23859115  .00001071  00000-0  85337-4 0  9994,2 49442  53.2155 120.8137 0001457  90.8472 269.2687 15.08843858109791,6917.869,95.437,540.742,538.726,0.0
49442.0,STARLINK-3098,PAYLOAD,2023-10-29 18:26:39,15.08847068,0.0001426,53.2158,118.4356,88.9335,271.182,0.00012005,1.624e-05,0.0,0 STARLINK-3098,1 49442U 21104AL  23302.76850777  .00001624  00000-0  12005-3 0  9992,2 49442  53.2158 118.4356 0001426  88.9335 271.1820 15.08847068108799,6917.859,95.437,540.71,538.737,0.0
49442.0,STARLINK-3098,PAYLOAD,2023-10-30 11:55:54,15.08834542,0.0001435,53.215,115.1638,93.1432,266.9725,6.8583e-05,8.04e-06,0.0,0 STARLINK-3098,1 49442U 21104AL  23303.49715662  .00000804  00000-0  68583-4 0  9998,2 49442  53.2150 115.1638 0001435  93.1432 266.9725 15.08834542109985,6917.897,95.438,540.755,538.769,0.0
49442.0,STARLINK-3098,PAYLOAD,2023-10-30 18:17:27,15.0883333,0.0001442,53.2161,113.9743,95.1424,264.9733,7.9111e-05,9.71e-06,0.0,0 STARLINK-3098,1 49442U 21104AL  23303.76211848  .00000971  00000-0  79111-4 0  9999,2 49442  53.2161 113.9743 0001442  95.1424 264.9733 15.08833330108947,6917.901,95.438,540.763,538.768,0.0
49442.0,STARLINK-3098,PAYLOAD,2023-10-31 14:57:27,15.08840419,0.0001412,53.2165,110.1088,95.7644,264.3509,3.8799e-05,3.3e-06,0.0,0 STARLINK-3098,1 49442U 21104AL  23304.62323590  .00000330  00000-0  38799-4 0  9999,2 49442  53.2165 110.1088 0001412  95.7644 264.3509 15.08840419109075,6917.879,95.438,540.721,538.767,0.0
49442.0,STARLINK-3098,PAYLOAD,2023-10-31 18:08:13,15.08843214,0.0001345,53.2172,109.5157,94.1272,265.9874,6.5615e-05,7.57e-06,0.0,0 STARLINK-3098,1 49442U 21104AL  23304.75571368  .00000757  00000-0  65615-4 0  9991,2 49442  53.2172 109.5157 0001345  94.1272 265.9874 15.08843214110178,6917.871,95.437,540.666,538.805,0.0
49442.0,STARLINK-3098,PAYLOAD,2023-11-01 11:37:28,15.08832767,0.0001311,53.217,106.2451,96.0351,264.0791,8.9556e-05,1.137e-05,0.0,0 STARLINK-3098,1 49442U 21104AL  23305.48436165  .00001137  00000-0  89556-4 0  9990,2 49442  53.2170 106.2451 0001311  96.0351 264.0791 15.08832767110280,6917.902,95.438,540.674,538.861,0.0
49442.0,STARLINK-3098,PAYLOAD,2023-11-01 14:48:14,15.08834893,0.0001359,53.2173,105.6506,96.4049,263.7098,0.00010135,1.325e-05,0.0,0 STARLINK-3098,1 49442U 21104AL  23305.61684016  .00001325  00000-0  10135-3 0  9990,2 49442  53.2173 105.6506 0001359  96.4049 263.7098 15.08834893109227,6917.896,95.438,540.701,538.821,0.0
49442.0,STARLINK-3098,PAYLOAD,2023-11-01 17:59:01,15.08837186,0.0001376,53.2174,105.0558,96.5395,263.5754,0.00011828,1.595e-05,0.0,0 STARLINK-3098,1 49442U 21104AL  23305.74931882  .00001595  00000-0  11828-3 0  9999,2 49442  53.2174 105.0558 0001376  96.5395 263.5754 15.08837186109240,6917.889,95.438,540.706,538.802,0.0
49442.0,STARLINK-3098,PAYLOAD,2023-11-02 14:39:02,15.08836844,0.0001285,53.2164,101.1885,91.4467,268.6672,2.9109e-05,1.75e-06,0.0,0 STARLINK-3098,1 49442U 21104AL  23306.61044297  .00000175  00000-0  29109-4 0  9996,2 49442  53.2164 101.1885 0001285  91.4467 268.6672 15.08836844109371,6917.89,95.438,540.644,538.866,0.0
49442.0,STARLINK-3098,PAYLOAD,2023-11-02 17:49:48,15.08841023,0.0001307,53.2165,100.5939,88.019,272.0952,6.2266e-05,7.03e-06,0.0,0 STARLINK-3098,1 49442U 21104AL  23306.74291975  .00000703  00000-0  62266-4 0  9995,2 49442  53.2165 100.5939 0001307  88.0190 272.0952 15.08841023110473,6917.877,95.437,540.646,538.838,0.0
49442.0,STARLINK-3098,PAYLOAD,2023-11-03 14:29:48,15.08840375,0.000132,53.2163,96.728,88.3788,271.7355,0.00011923,1.61e-05,0.0,0 STARLINK-3098,1 49442U 21104AL  23307.60403932  .00001610  00000-0  11923-3 0  9990,2 49442  53.2163  96.7280 0001320  88.3788 271.7355 15.08840375109523,6917.879,95.438,540.657,538.831,0.0
49442.0,STARLINK-3098,PAYLOAD,2023-11-03 19:15:58,15.08847789,0.0001304,53.2168,95.835,88.0974,272.0168,0.00010334,1.357e-05,0.0,0 STARLINK-3098,1 49442U 21104AL  23307.80275486  .00001357  00000-0  10334-3 0  9996,2 49442  53.2168  95.8350 0001304  88.0974 272.0168 15.08847789110638,6917.857,95.437,540.624,538.819,0.0
49442.0,STARLINK-3098,PAYLOAD,2023-11-04 09:34:26,15.08840631,0.0001655,53.2175,93.1616,84.9872,275.1309,3.097e-05,2.05e-06,0.0,0 STARLINK-3098,1 49442U 21104AL  23308.39892248  .00000205  00000-0  30970-4 0  9992,2 49442  53.2175  93.1616 0001655  84.9872 275.1309 15.08840631110723,6917.878,95.438,540.888,538.599,0.0
49442.0,STARLINK-3098,PAYLOAD,2023-11-04 12:45:13,15.08836662,0.0001532,53.2168,92.5654,86.4036,273.7131,3.6529e-05,2.93e-06,0.0,0 STARLINK-3098,1 49442U 21104AL  23308.53140451  .00000293  00000-0  36529-4 0  9993,2 49442  53.2168  92.5654 0001532  86.4036 273.7131 15.08836662109660,6917.891,95.438,540.815,538.696,0.0
49442.0,STARLINK-3098,PAYLOAD,2023-11-04 17:31:22,15.08841946,0.0001473,53.2167,91.6726,86.3173,273.7988,8.5511e-05,1.073e-05,0.0,0 STARLINK-3098,1 49442U 21104AL  23308.73012010  .00001073  00000-0  85511-4 0  9996,2 49442  53.2167  91.6726 0001473  86.3173 273.7988 15.08841946109698,6917.874,95.437,540.758,538.72,0.0
49442.0,STARLINK-3098,PAYLOAD,2023-11-05 09:25:15,15.08824489,0.0001739,53.2187,88.6985,90.5711,269.548,-8.1259e-05,-1.581e-05,0.0,0 STARLINK-3098,1 49442U 21104AL  23309.39253810 -.00001581  00000-0 -81259-4 0  9995,2 49442  53.2187  88.6985 0001739  90.5711 269.5480 15.08824489110878,6917.928,95.439,540.996,538.59,0.0
49442.0,STARLINK-3098,PAYLOAD,2023-11-05 14:11:24,15.08830409,0.0001564,53.2172,87.807,83.2987,276.8183,-1.8213e-05,-5.78e-06,0.0,0 STARLINK-3098,1 49442U 21104AL  23309.59125487 -.00000578  00000-0 -18213-4 0  9990,2 49442  53.2172  87.8070 0001564  83.2987 276.8183 15.08830409109821,6917.91,95.438,540.857,538.693,0.0
49442.0,STARLINK-3098,PAYLOAD,2023-11-05 15:46:47,15.08837628,0.0001615,53.2176,87.5084,77.302,282.8153,-3.8179e-05,-8.96e-06,0.0,0 STARLINK-3098,1 49442U 21104AL  23309.65749101 -.00000896  00000-0 -38179-4 0  9998,2 49442  53.2176  87.5084 0001615  77.3020 282.8153 15.08837628110912,6917.888,95.438,540.87,538.635,0.0
49442.0,STARLINK-3098,PAYLOAD,2023-11-06 02:54:27,15.08855057,0.000168,53.2183,85.431,81.8185,278.2998,0.00018221,2.614e-05,0.0,0 STARLINK-3098,1 49442U 21104AL  23310.12115345  .00002614  00000-0  18221-3 0  9992,2 49442  53.2183  85.4310 0001680  81.8185 278.2998 15.08855057110982,6917.834,95.437,540.862,538.537,0.0
49442.0,STARLINK-3098,PAYLOAD,2023-11-06 14:02:11,15.08816269,0.0001343,53.2158,83.3467,75.8883,284.2258,-0.00021117,-3.645e-05,0.0,0 STARLINK-3098,1 49442U 21104AL  23310.58485544 -.00003645  00000-0 -21117-3 0  9998,2 49442  53.2158  83.3467 0001343  75.8883 284.2258 15.08816269109973,6917.953,95.439,540.747,538.889,0.0
49442.0,STARLINK-3098,PAYLOAD,2023-11-06 15:37:32,15.0886932,0.0001243,53.2161,83.0491,95.359,264.7544,0.00050113,7.703e-05,0.0,0 STARLINK-3098,1 49442U 21104AL  23310.65106830  .00007703  00000-0  50113-3 0  9999,2 49442  53.2161  83.0491 0001243  95.3590 264.7544 15.08869320111062,6917.791,95.436,540.516,538.796,0.0
